norad_id,name,regime,epoch,line1,line2,inclination,eccentricity,mean_motion,raan,arg_pericenter,mean_anomaly
25049,SIRIUS 2 (GE-1E),GEO,16111.36452419,1 25049U 97071A   16111.36452419 -.00000147 +00000-0 +00000-0 0 0001\,2 25049 005.9089 057.4900 0002014 329.5726 235.8576 00.9940231706724,5.9089,0.0002014,0.99402317,57.49,329.5726,235.8576
25049,SIRIUS 2 (GE-1E),GEO,16113.40987133,1 25049U 97071A   16113.40987133 -.00000107  00000-0  00000+0 0  8897\,2 25049   5.9126  57.4756 0002000 332.3501 245.0258  0.99401727 67343,5.9126,0.0002,0.99401727,57.4756,332.3501,245.0258
25049,SIRIUS 2 (GE-1E),GEO,16114.48605824,1 25049U 97071A   16114.48605824 -.00000086 +00000-0 +00000-0 0 0001\,2 25049 005.9146 057.4681 0001995 333.9262 268.5725 00.9940150306727,5.9146,0.0001995,0.99401503,57.4681,333.9262,268.5725
25049,SIRIUS 2 (GE-1E),GEO,16115.49404367,1 25049U 97071A   16115.49404367 -.00000068  00000-0  00000+0 0  8909\,2 25049   5.9164  57.4610 0001997 335.1746 268.0401  0.99401336 67363,5.9164,0.0001997,0.99401336,57.461,335.1746,268.0401
25049,SIRIUS 2 (GE-1E),GEO,16116.33306749,1 25049U 97071A   16116.33306749 -.00000052 +00000-0 +00000-0 0 0001\,2 25049 005.9179 057.4552 0002001 336.0985 207.3665 00.9940120406729,5.9179,0.0002001,0.99401204,57.4552,336.0985,207.3665
25049,SIRIUS 2 (GE-1E),GEO,16117.34328314,1 25049U 97071A   16117.34328314 -.00000035 +00000-0 +00000-0 0 0001\,2 25049 005.9197 057.4480 0002006 337.3049 207.6721 00.9940107806730,5.9197,0.0002006,0.99401078,57.448,337.3049,207.6721
25049,SIRIUS 2 (GE-1E),GEO,16118.26455307,1 25049U 97071A   16118.26455307 -.00000020  00000-0  00000+0 0  8916\,2 25049   5.9214  57.4413 0002015 338.5105 176.1489  0.99401004 67398,5.9214,0.0002015,0.99401004,57.4413,338.5105,176.1489
25049,SIRIUS 2 (GE-1E),GEO,16118.59884587,1 25049U 97071A   16118.59884587 -.00000014 +00000-0 +00000-0 0 0001\,2 25049 005.9220 057.4389 0002017 338.4059 295.8825 00.9940098806731,5.922,0.0002017,0.99400988,57.4389,338.4059,295.8825
25049,SIRIUS 2 (GE-1E),GEO,16120.33555155,1 25049U 97071A   16120.33555155  .00000012  00000-0  00000+0 0  8920\,2 25049   5.9251  57.4264 0002040 340.9313 194.8479  0.99400958 67415,5.9251,0.000204,0.99400958,57.4264,340.9313,194.8479
25049,SIRIUS 2 (GE-1E),GEO,16121.33129654,1 25049U 97071A   16121.33129654 +.00000026 +00000-0 +00000-0 0 0001\,2 25049 005.9269 057.4192 0002055 342.4565 189.6563 00.9940099106734,5.9269,0.0002055,0.99400991,57.4192,342.4565,189.6563
25049,SIRIUS 2 (GE-1E),GEO,16122.54560350,1 25049U 97071A   16122.54560350  .00000041  00000-0  00000+0 0  8931\,2 25049   5.9290  57.4106 0002075 344.6856 261.9746  0.99401074 67439,5.929,0.0002075,0.99401074,57.4106,344.6856,261.9746
25049,SIRIUS 2 (GE-1E),GEO,16123.60903782,1 25049U 97071A   16123.60903782 +.00000052 +00000-0 +00000-0 0 0001\,2 25049 005.9309 057.4032 0002091 346.2496 280.9681 00.9940120606736,5.9309,0.0002091,0.99401206,57.4032,346.2496,280.9681
25049,SIRIUS 2 (GE-1E),GEO,16125.41813311,1 25049U 97071A   16125.41813311  .00000066  00000-0  00000+0 0  8946\,2 25049   5.9340  57.3904 0002114 349.7039 204.9133  0.99401539 67469,5.934,0.0002114,0.99401539,57.3904,349.7039,204.9133
25049,SIRIUS 2 (GE-1E),GEO,16126.41839919,1 25049U 97071A   16126.41839919 +.00000072 +00000-0 +00000-0 0 0001\,2 25049 005.9357 057.3833 0002126 351.4952 201.0756 00.9940174906739,5.9357,0.0002126,0.99401749,57.3833,351.4952,201.0756
25049,SIRIUS 2 (GE-1E),GEO,16127.41360244,1 25049U 97071A   16127.41360244 +.00000075 +00000-0 +00000-0 0 0001\,2 25049 005.9374 057.3763 0002136 353.3567 195.3590 00.9940204606740,5.9374,0.0002136,0.99402046,57.3763,353.3567,195.359
25049,SIRIUS 2 (GE-1E),GEO,16128.15737624,1 25049U 97071A   16128.15737624  .00000076  00000-0  00000+0 0  8954\,2 25049   5.9387  57.3710 0002142 355.0341  99.8472  0.99402212 67491,5.9387,0.0002142,0.99402212,57.371,355.0341,99.8472
25049,SIRIUS 2 (GE-1E),GEO,16128.55709172,1 25049U 97071A   16128.55709172 +.00000077 +00000-0 +00000-0 0 0001\,2 25049 005.9394 057.3682 0002143 355.7244 242.2002 00.9940235206741,5.9394,0.0002143,0.99402352,57.3682,355.7244,242.2002
25049,SIRIUS 2 (GE-1E),GEO,16129.43794228,1 25049U 97071A   16129.43794228 +.00000076 +00000-0 +00000-0 0 0001\,2 25049 005.9409 057.3619 0002144 357.3967 195.7505 00.9940262706742,5.9409,0.0002144,0.99402627,57.3619,357.3967,195.7505
25049,SIRIUS 2 (GE-1E),GEO,16130.41115353,1 25049U 97071A   16130.41115353  .00000074  00000-0  00000+0 0  8964\,2 25049   5.9426  57.3551 0002145 359.2427 182.1808  0.99402966 67510,5.9426,0.0002145,0.99402966,57.3551,359.2427,182.1808
25049,SIRIUS 2 (GE-1E),GEO,16131.46251796,1 25049U 97071A   16131.46251796 +.00000070 +00000-0 +00000-0 0 0001\,2 25049 005.9444 057.3477 0002143 001.1683 196.5016 00.9940337106744,5.9444,0.0002143,0.99403371,57.3477,1.1683,196.5016
25049,SIRIUS 2 (GE-1E),GEO,16133.19497373,1 25049U 97071A   16133.19497373  .00000060  00000-0  00000+0 0  8973\,2 25049   5.9474  57.3353 0002130   3.9060  93.7511  0.99404053 67543,5.9474,0.000213,0.99404053,57.3353,3.906,93.7511
25049,SIRIUS 2 (GE-1E),GEO,16133.49015068,1 25049U 97071A   16133.49015068 +.00000058 +00000-0 +00000-0 0 0001\,2 25049 005.9479 057.3332 0002127 004.3137 198.9773 00.9940417406746,5.9479,0.0002127,0.99404174,57.3332,4.3137,198.9773
25049,SIRIUS 2 (GE-1E),GEO,16134.60607308,1 25049U 97071A   16134.60607308 +.00000049 +00000-0 +00000-0 0 0001\,2 25049 005.9498 057.3252 0002114 005.5924 237.0531 00.9940466806747,5.9498,0.0002114,0.99404668,57.3252,5.5924,237.0531
25049,SIRIUS 2 (GE-1E),GEO,16135.57050213,1 25049U 97071A   16135.57050213  .00000040  00000-0  00000+0 0  8984\,2 25049   5.9515  57.3184 0002104   6.8599 220.9253  0.99405071 67561,5.9515,0.0002104,0.99405071,57.3184,6.8599,220.9253
25049,SIRIUS 2 (GE-1E),GEO,16136.54546538,1 25049U 97071A   16136.54546538 +.00000029 +00000-0 +00000-0 0 0001\,2 25049 005.9533 057.3116 0002093 008.0522 208.6440 00.9940548506749,5.9533,0.0002093,0.99405485,57.3116,8.0522,208.644
25049,SIRIUS 2 (GE-1E),GEO,16137.48439280,1 25049U 97071A   16137.48439280 +.00000016 +00000-0 +00000-0 0 0001\,2 25049 005.9549 057.3051 0002086 009.2675 183.4446 00.9940587806750,5.9549,0.0002086,0.99405878,57.3051,9.2675,183.4446
25049,SIRIUS 2 (GE-1E),GEO,16137.71262067,1 25049U 97071A   16137.71262067  .00000013  00000-0  00000+0 0  8995\,2 25049   5.9553  57.3035 0002083   9.8000 264.5885  0.99405970 67589,5.9553,0.0002083,0.9940597,57.3035,9.8,264.5885
25049,SIRIUS 2 (GE-1E),GEO,16138.49663043,1 25049U 97071A   16138.49663043 +.00000001 +00000-0 +00000-0 0 0001\,2 25049 005.9567 057.2981 0002083 010.6423 184.3242 00.9940632906751,5.9567,0.0002083,0.99406329,57.2981,10.6423,184.3242
25049,SIRIUS 2 (GE-1E),GEO,16139.96321142,1 25049U 97071A   16139.96321142  .00000000  00000-0  10000-3 0  9019\,2 25049   5.9596  57.2882 0002496   6.1631 353.6534  0.99404453 67602,5.9596,0.0002496,0.99404453,57.2882,6.1631,353.6534
25049,SIRIUS 2 (GE-1E),GEO,16140.52081122,1 25049U 97071A   16140.52081122 -.00000034 +00000-0 +00000-0 0 0001\,2 25049 005.9603 057.2842 0002075 012.9835 186.3892 00.9940716106753,5.9603,0.0002075,0.99407161,57.2842,12.9835,186.3892
25049,SIRIUS 2 (GE-1E),GEO,16141.61864961,1 25049U 97071A   16141.61864961 -.00000056 +00000-0 +00000-0 0 0001\,2 25049 005.9622 057.2766 0002068 013.8037 218.4625 00.9940759806754,5.9622,0.0002068,0.99407598,57.2766,13.8037,218.4625
25049,SIRIUS 2 (GE-1E),GEO,16142.54789634,1 25049U 97071A   16142.54789634 -.00000076  00000-0  00000+0 0  9032\,2 25049   5.9638  57.2702 0002072  14.4706 190.3547  0.99407940 67632,5.9638,0.0002072,0.9940794,57.2702,14.4706,190.3547
25049,SIRIUS 2 (GE-1E),GEO,16143.61816603,1 25049U 97071A   16143.61816603 -.00000101 +00000-0 +00000-0 0 0001\,2 25049 005.9657 057.2628 0002076 015.6749 212.1787 00.9940826706756,5.9657,0.0002076,0.99408267,57.2628,15.6749,212.1787
25049,SIRIUS 2 (GE-1E),GEO,16144.56826831,1 25049U 97071A   16144.56826831 -.00000123  00000-0  00000+0 0  9041\,2 25049   5.9673  57.2562 0002083  16.4993 191.3806  0.99408580 67659,5.9673,0.0002083,0.9940858,57.2562,16.4993,191.3806
25049,SIRIUS 2 (GE-1E),GEO,16145.58737809,1 25049U 97071A   16145.58737809 -.00000147 +00000-0 +00000-0 0 0001\,2 25049 005.9691 057.2490 0002094 017.5059 195.0962 00.9940883006758,5.9691,0.0002094,0.9940883,57.249,17.5059,195.0962
25049,SIRIUS 2 (GE-1E),GEO,16146.59510206,1 25049U 97071A   16146.59510206 -.00000171  00000-0  00000+0 0  9056\,2 25049   5.9709  57.2420 0002110  18.6218 194.6295  0.99409057 67677,5.9709,0.000211,0.99409057,57.242,18.6218,194.6295
25049,SIRIUS 2 (GE-1E),GEO,16147.57574716,1 25049U 97071A   16147.57574716 -.00000194 +00000-0 +00000-0 0 0001\,2 25049 005.9725 057.2351 0002124 019.3165 184.8939 00.9940923406760,5.9725,0.0002124,0.99409234,57.2351,19.3165,184.8939
25049,SIRIUS 2 (GE-1E),GEO,16148.61930456,1 25049U 97071A   16148.61930456 -.00000217  00000-0  00000+0 0  9066\,2 25049   5.9744  57.2277 0002145  20.4379 197.2464  0.99409339 67695,5.9744,0.0002145,0.99409339,57.2277,20.4379,197.2464
25049,SIRIUS 2 (GE-1E),GEO,16149.57886895,1 25049U 97071A   16149.57886895 -.00000238 +00000-0 +00000-0 0 0001\,2 25049 005.9760 057.2210 0002167 021.4989 179.5998 00.9940938206762,5.976,0.0002167,0.99409382,57.221,21.4989,179.5998
25049,SIRIUS 2 (GE-1E),GEO,16150.88933821,1 25049U 97071A   16150.88933821 -.00000264 +00000-0 +00000-0 0 0001\,2 25049 005.9782 057.2119 0002205 023.5591 286.5383 00.9940936406763,5.9782,0.0002205,0.99409364,57.2119,23.5591,286.5383
25049,SIRIUS 2 (GE-1E),GEO,16151.60022537,1 25049U 97071A   16151.60022537 -.00000277 +00000-0 +00000-0 0 0001\,2 25049 005.9794 057.2069 0002227 024.4577 180.0577 00.9940935206764,5.9794,0.0002227,0.99409352,57.2069,24.4577,180.0577
25049,SIRIUS 2 (GE-1E),GEO,16152.78721576,1 25049U 97071A   16152.78721576 -.00000297 +00000-0 +00000-0 0 0001\,2 25049 005.9814 057.1987 0002259 025.8033 243.5184 00.9940918706765,5.9814,0.0002259,0.99409187,57.1987,25.8033,243.5184
